KUIPER-00008            
1 63724U 25088A   25296.46782416  .00007758  00000+0  64335-3 0  9997
2 63724  51.8917 352.6245 0011444   2.5180 357.5846 14.99610662 27474
KUIPER-00009            
1 63725U 25088B   25296.56112763  .00002903  00000+0  40790-3 0  9997
2 63725  51.9026 352.9796 0012772   7.9569 352.1594 14.80109222 27472
KUIPER-00010            
1 63726U 25088C   25297.00004630 -.00657659  00000+0 -82696-1 0  9996
2 63726  51.9064 327.5500 0012532  56.2231 133.8118 14.84035730  4087
KUIPER-00011            
1 63727U 25088D   25296.51269970 -.00000324  00000+0 -12932-4 0  9992
2 63727  51.9017 337.2569 0013719  24.5089 335.6523 14.79925872 27442
KUIPER-00012            
1 63728U 25088E   25296.47082733 -.00028679  00000+0 -12793-2 0  9994
2 63728  51.8682 326.4519 0011144  18.9929 341.1464 15.20592167 27546
KUIPER-00013            
1 63729U 25088F   25296.56130926  .00008676  00000+0  11605-2 0  9997
2 63729  51.9026 354.4592 0007574 299.7490  60.2718 14.80106535 27261
KUIPER-00014            
1 63730U 25088G   25296.55954499  .00004000  00000+0  55282-3 0  9994
2 63730  51.9034 355.4335 0008382   2.2003 357.8995 14.79974976 27063
KUIPER-00015            
1 63731U 25088H   25296.59296521  .00003601  00000+0  48323-3 0  9998
2 63731  51.9005   6.9158 0009918 346.8577  13.2126 14.81477884 27363
